source('metar_decoder.R')

VRMMs=c(
"VRMM 250000Z 20003KT 9999 FEW018TCU BKN270 29/25 Q1008 NOSIG",
"VRMM 250100Z 25004KT 9999 SCT018 29/25 Q1009 NOSIG",
"VRMM 250200Z 24005KT 9999 SCT018TCU BKN270 29/25 Q1010 NOSIG",
"VRMM 250300Z VRB02KT 9999 SCT017 FEW018CB 29/25 Q1010 TEMPO 5000 -SHRA",
"VRMM 250400Z 25006KT 9999 FEW018TCU SCT270 31/25 Q1011 TEMPO FEW018CB",
"VRMM 250500Z 25005KT 9999 FEW018TCU BKN270 31/25 Q1011 TEMPO FEW018CB",
"VRMM 250600Z 26007KT 9999 FEW018 BKN270 32/26 Q1011 TEMPO FEW018CB",
"VRMM 250700Z 25007KT 9999 FEW018 FEW019CB SCT130 BKN270 32/25 Q1011 CB NW NOSIG",
"VRMM 250800Z 25010KT 9999 FEW018 FEW019CB SCT130 BKN270 32/25 Q1010 CB W NW NOSIG",
"VRMM 250900Z 25009KT 9999 FEW018 FEW019CB BKN270 32/25 Q1009 CB W NOSIG",
"VRMM 251000Z 25010KT 9999 FEW018 FEW019CB BKN270 32/25 Q1008 CB S NOSIG",
"VRMM 251100Z 25009KT 9999 FEW018 FEW019CB BKN270 31/24 Q1009 CB N NOSIG",
"VRMM 251200Z 27010KT 9999 FEW018 FEW019CB BKN270 30/25 Q1009 CB N NE SE NOSIG",
"VRMM 251300Z 27008KT 9999 FEW018 FEW019CB SCT120 BKN270 30/25 Q1009 CB N ESE NOSIG",
"VRMM 251400Z 26005KT 9999 FEW018TCU BKN270 30/25 Q1009 NOSIG",
"VRMM 251500Z 25005KT 9999 FEW018TCU BKN270 29/25 Q1009 NOSIG",
"VRMM 241600Z 28013KT 9999 SCT017TCU BKN120 28/24 Q1011 TEMPO 5000 -TSRA",
"VRMM 241700Z 25013KT 9999 FEW017TCU SCT120 BKN280 28/24 Q1011 TEMPO 5000 -TSRA",
"VRMM 241800Z 25013KT 9999 FEW017TCU SCT120 BKN270 29/24 Q1011 TEMPO 5000 -TSRA",
"VRMM 241900Z 24009KT 9999 FEW018TCU BKN120 29/25 Q1010 TEMPO 5000 -TSRA",
"VRMM 242000Z 25009KT 9999 FEW018TCU BKN270 29/26 Q1009 NOSIG",
"VRMM 242100Z 23009KT 9999 FEW018TCU BKN270 29/25 Q1008 NOSIG",
"VRMM 242200Z 22008KT 9999 FEW018TCU BKN270 29/25 Q1008 NOSIG",
"VRMM 242300Z 23005KT 9999 FEW018TCU BKN270 29/25 Q1008 NOSIG")


df = metar_decoder(VRMMs)

df$timestamp <- as.POSIXlt(sprintf("2019-05-%02d %02d:%02d",df$day,df$hour,df$minute),tz="UTC")

plot(df$timestamp,df$temperature,ylab = "Temperatuire in Celsius degree",xlab = "2019-05-24 and 2019-05-25, UTC time",main = "Temperature in Velana International Airport, Malé, Maldives")




